{
  "type": "FeatureCollection",
  "features": [
    {
      "type": "Feature",
      "properties": {
        "source": "Sentinel-2",
        "date": "2021-06-15"
      },
      "geometry": {
        "type": "LineString",
        "coordinates": [
          [118.2560, 24.4510],
          [118.2465, 24.4585],
          [118.2335, 24.4685],
          [118.2200, 24.4780],
          [118.2060, 24.4875],
          [118.1930, 24.4975],
          [118.1820, 24.5065],
          [118.1710, 24.5160],
          [118.1600, 24.5245],
          [118.1485, 24.5315],
          [118.1370, 24.5375],
          [118.1260, 24.5415],
          [118.1160, 24.5425],
          [118.1085, 24.5415],
          [118.1030, 24.5380],
          [118.0995, 24.5330],
          [118.0980, 24.5275],
          [118.0980, 24.5215],
          [118.1000, 24.5150],
          [118.1040, 24.5085],
          [118.1095, 24.5025],
          [118.1170, 24.4965],
          [118.1260, 24.4905],
          [118.1360, 24.4845],
          [118.1470, 24.4775],
          [118.1585, 24.4695],
          [118.1705, 24.4615],
          [118.1830, 24.4545],
          [118.1960, 24.4490],
          [118.2095, 24.4460],
          [118.2235, 24.4450],
          [118.2380, 24.4455],
          [118.2495, 24.4475],
          [118.2560, 24.4510]
        ]
      }
    }
  ]
}

