{
  "type": "FeatureCollection",
  "features": [
    {
      "type": "Feature",
      "properties": {
        "name": "Xiamen shoreline 2018",
        "source": "derived from 2015/2021 nearshore shoreline",
        "year": 2018
      },
      "geometry": {
        "type": "LineString",
        "coordinates": [
          [
            118.254975,
            24.451472
          ],
          [
            118.245508,
            24.45897
          ],
          [
            118.232538,
            24.468966
          ],
          [
            118.219065,
            24.478459
          ],
          [
            118.205086,
            24.487949
          ],
          [
            118.1921,
            24.497937
          ],
          [
            118.181107,
            24.506923
          ],
          [
            118.170105,
            24.516408
          ],
          [
            118.159095,
            24.524893
          ],
          [
            118.147578,
            24.531878
          ],
          [
            118.136054,
            24.537863
          ],
          [
            118.125025,
            24.54185
          ],
          [
            118.114994,
            24.542838
          ],
          [
            118.107461,
            24.541829
          ],
          [
            118.101929,
            24.538322
          ],
          [
            118.0984,
            24.533319
          ],
          [
            118.096875,
            24.527818
          ],
          [
            118.096857,
            24.521821
          ],
          [
            118.098846,
            24.515326
          ],
          [
            118.102843,
            24.508834
          ],
          [
            118.108348,
            24.502845
          ],
          [
            118.115862,
            24.496857
          ],
          [
            118.124882,
            24.490871
          ],
          [
            118.134908,
            24.484886
          ],
          [
            118.145938,
            24.477902
          ],
          [
            118.157471,
            24.469917
          ],
          [
            118.169503,
            24.461931
          ],
          [
            118.182034,
            24.454944
          ],
          [
            118.195062,
            24.449455
          ],
          [
            118.208584,
            24.446463
          ],
          [
            118.222599,
            24.445469
          ],
          [
            118.237106,
            24.445972
          ],
          [
            118.248606,
            24.447971
          ],
          [
            118.255097,
            24.451468
          ]
        ]
      }
    }
  ]
}