{
  "type": "FeatureCollection",
  "features": [
    {
      "type": "Feature",
      "properties": {
        "name": "Xiamen shoreline 2019",
        "source": "derived from 2015/2021 nearshore shoreline",
        "year": 2019
      },
      "geometry": {
        "type": "LineString",
        "coordinates": [
          [
            118.25553,
            24.451208
          ],
          [
            118.246072,
            24.458706
          ],
          [
            118.233111,
            24.4687
          ],
          [
            118.219645,
            24.478191
          ],
          [
            118.205671,
            24.487678
          ],
          [
            118.192689,
            24.497663
          ],
          [
            118.181698,
            24.506646
          ],
          [
            118.170695,
            24.516127
          ],
          [
            118.159683,
            24.524607
          ],
          [
            118.148161,
            24.531588
          ],
          [
            118.136631,
            24.537569
          ],
          [
            118.125594,
            24.541552
          ],
          [
            118.115554,
            24.542538
          ],
          [
            118.108012,
            24.541526
          ],
          [
            118.102471,
            24.538018
          ],
          [
            118.098934,
            24.533013
          ],
          [
            118.097403,
            24.527512
          ],
          [
            118.09738,
            24.521515
          ],
          [
            118.099366,
            24.515022
          ],
          [
            118.103362,
            24.508532
          ],
          [
            118.108869,
            24.502546
          ],
          [
            118.116386,
            24.496562
          ],
          [
            118.125411,
            24.49058
          ],
          [
            118.135445,
            24.484599
          ],
          [
            118.146483,
            24.477619
          ],
          [
            118.158024,
            24.469638
          ],
          [
            118.170066,
            24.461656
          ],
          [
            118.182606,
            24.454672
          ],
          [
            118.19564,
            24.449186
          ],
          [
            118.209168,
            24.446197
          ],
          [
            118.223188,
            24.445204
          ],
          [
            118.237697,
            24.445708
          ],
          [
            118.249196,
            24.447707
          ],
          [
            118.255685,
            24.451203
          ]
        ]
      }
    }
  ]
}