{
  "type": "FeatureCollection",
  "features": [
    {
      "type": "Feature",
      "properties": {
        "name": "Xiamen shoreline 2024",
        "source": "derived from 2015/2021 nearshore shoreline",
        "year": 2024
      },
      "geometry": {
        "type": "LineString",
        "coordinates": [
          [
            118.256675,
            24.451059
          ],
          [
            118.247211,
            24.458557
          ],
          [
            118.234244,
            24.468552
          ],
          [
            118.220773,
            24.478044
          ],
          [
            118.206796,
            24.487534
          ],
          [
            118.193812,
            24.49752
          ],
          [
            118.182819,
            24.506505
          ],
          [
            118.171817,
            24.515989
          ],
          [
            118.160806,
            24.524473
          ],
          [
            118.149287,
            24.531456
          ],
          [
            118.137761,
            24.53744
          ],
          [
            118.12673,
            24.541426
          ],
          [
            118.116695,
            24.542413
          ],
          [
            118.109159,
            24.541403
          ],
          [
            118.103624,
            24.537896
          ],
          [
            118.100093,
            24.532892
          ],
          [
            118.098566,
            24.527391
          ],
          [
            118.098546,
            24.521394
          ],
          [
            118.100534,
            24.5149
          ],
          [
            118.104531,
            24.508409
          ],
          [
            118.110037,
            24.50242
          ],
          [
            118.117551,
            24.496434
          ],
          [
            118.126573,
            24.490449
          ],
          [
            118.136602,
            24.484466
          ],
          [
            118.147635,
            24.477482
          ],
          [
            118.15917,
            24.469499
          ],
          [
            118.171206,
            24.461514
          ],
          [
            118.18374,
            24.454528
          ],
          [
            118.19677,
            24.44904
          ],
          [
            118.210294,
            24.446049
          ],
          [
            118.22431,
            24.445056
          ],
          [
            118.238818,
            24.445559
          ],
          [
            118.250317,
            24.447558
          ],
          [
            118.256808,
            24.451055
          ]
        ]
      }
    }
  ]
}