{
  "type": "FeatureCollection",
  "features": [
    {
      "type": "Feature",
      "properties": {
        "source": "Landsat-8",
        "date": "2015-06-15"
      },
      "geometry": {
        "type": "LineString",
        "coordinates": [
          [118.2545, 24.4515],
          [118.2450, 24.4590],
          [118.2320, 24.4690],
          [118.2185, 24.4785],
          [118.2045, 24.4880],
          [118.1915, 24.4980],
          [118.1805, 24.5070],
          [118.1695, 24.5165],
          [118.1585, 24.5250],
          [118.1470, 24.5320],
          [118.1355, 24.5380],
          [118.1245, 24.5420],
          [118.1145, 24.5430],
          [118.1070, 24.5420],
          [118.1015, 24.5385],
          [118.0980, 24.5335],
          [118.0965, 24.5280],
          [118.0965, 24.5220],
          [118.0985, 24.5155],
          [118.1025, 24.5090],
          [118.1080, 24.5030],
          [118.1155, 24.4970],
          [118.1245, 24.4910],
          [118.1345, 24.4850],
          [118.1455, 24.4780],
          [118.1570, 24.4700],
          [118.1690, 24.4620],
          [118.1815, 24.4550],
          [118.1945, 24.4495],
          [118.2080, 24.4465],
          [118.2220, 24.4455],
          [118.2365, 24.4460],
          [118.2480, 24.4480],
          [118.2545, 24.4515]
        ]
      }
    }
  ]
}

