{
  "type": "FeatureCollection",
  "features": [
    {
      "type": "Feature",
      "properties": {
        "name": "Xiamen shoreline 2023",
        "source": "derived from 2015/2021 nearshore shoreline",
        "year": 2023
      },
      "geometry": {
        "type": "LineString",
        "coordinates": [
          [
            118.25647,
            24.451203
          ],
          [
            118.246997,
            24.458702
          ],
          [
            118.234022,
            24.468698
          ],
          [
            118.220544,
            24.478192
          ],
          [
            118.206561,
            24.487684
          ],
          [
            118.193572,
            24.497674
          ],
          [
            118.182578,
            24.506663
          ],
          [
            118.171576,
            24.516151
          ],
          [
            118.160568,
            24.524638
          ],
          [
            118.149054,
            24.531626
          ],
          [
            118.137535,
            24.537614
          ],
          [
            118.126511,
            24.541603
          ],
          [
            118.116485,
            24.542594
          ],
          [
            118.108958,
            24.541586
          ],
          [
            118.103432,
            24.538081
          ],
          [
            118.099908,
            24.533078
          ],
          [
            118.098388,
            24.527577
          ],
          [
            118.098373,
            24.521579
          ],
          [
            118.100364,
            24.515084
          ],
          [
            118.104362,
            24.50859
          ],
          [
            118.109866,
            24.502599
          ],
          [
            118.117377,
            24.496609
          ],
          [
            118.126394,
            24.490621
          ],
          [
            118.136415,
            24.484633
          ],
          [
            118.14744,
            24.477646
          ],
          [
            118.158966,
            24.469658
          ],
          [
            118.170993,
            24.46167
          ],
          [
            118.183519,
            24.45468
          ],
          [
            118.196541,
            24.449189
          ],
          [
            118.210059,
            24.446196
          ],
          [
            118.224071,
            24.4452
          ],
          [
            118.238577,
            24.445703
          ],
          [
            118.250077,
            24.447703
          ],
          [
            118.25657,
            24.4512
          ]
        ]
      }
    }
  ]
}