{"type":"FeatureCollection","features":[{"type":"Feature","properties":{"source":"GSHHG 2.3.7 h L1","region":"Xiamen","bbox":[117.8,24.25,118.65,24.75]},"geometry":{"type":"MultiLineString","coordinates":[[[118.648722,24.680833],[118.642056,24.654194],[118.64625,24.636667]],[[118.647889,24.569167],[118.64625,24.564194]],[[118.638306,24.559556],[118.632444,24.557917],[118.630389,24.549167],[118.617889,24.542472],[118.620806,24.534583],[118.618278,24.53375],[118.615833,24.538722],[118.608278,24.536222],[118.605778,24.527056],[118.581667,24.52875],[118.573722,24.523333],[118.572083,24.5125],[118.566694,24.51125],[118.563722,24.515806],[118.56625,24.5225],[118.563722,24.5325],[118.568722,24.544139],[118.554556,24.554139],[118.556639,24.555389],[118.568306,24.547056],[118.573306,24.55625],[118.577528,24.555389],[118.58375,24.560778],[118.580389,24.570806],[118.589639,24.575],[118.576639,24.582861],[118.568306,24.582056],[118.570417,24.579167],[118.567444,24.578722],[118.5425,24.594583],[118.536611,24.605417],[118.517528,24.612028],[118.510833,24.610389],[118.495389,24.62],[118.494139,24.626194],[118.474944,24.630417],[118.446611,24.627861],[118.437861,24.629972],[118.442944,24.6325],[118.439556,24.654139],[118.453694,24.675],[118.454556,24.695],[118.452056,24.696611],[118.458333,24.696222],[118.46125,24.699111],[118.450389,24.699167],[118.459583,24.705833],[118.454167,24.704583],[118.455778,24.70875],[118.444111,24.70875],[118.437444,24.725444],[118.430389,24.705778],[118.430389,24.684972],[118.426639,24.679556],[118.418333,24.682083],[118.422861,24.678333],[118.414583,24.6725],[118.416222,24.663306],[118.422889,24.653333],[118.424583,24.637472],[118.430389,24.629972],[118.427056,24.6175],[118.415806,24.604556],[118.405806,24.605389],[118.398278,24.600417],[118.387472,24.600389],[118.363306,24.580417],[118.365361,24.585806],[118.363306,24.592056],[118.356639,24.589611],[118.354972,24.592889],[118.349139,24.587083],[118.344972,24.588722],[118.339972,24.585389],[118.314111,24.583722],[118.309972,24.587889],[118.306639,24.587056],[118.299944,24.59625],[118.272472,24.59625],[118.272944,24.603306],[118.268306,24.60625],[118.270833,24.595389],[118.275806,24.591222],[118.285444,24.590806],[118.284556,24.574111],[118.268306,24.567028],[118.261667,24.566222],[118.26,24.569583],[118.237528,24.539528],[118.226694,24.539583],[118.223333,24.545389],[118.212083,24.549944],[118.220806,24.550389],[118.227056,24.555],[118.225806,24.557056],[118.2175,24.552083],[118.213306,24.558722],[118.205,24.560389],[118.203333,24.564583],[118.194111,24.565417],[118.191194,24.569167],[118.190389,24.575],[118.197917,24.581667],[118.186194,24.584167],[118.192944,24.591667],[118.187083,24.597472],[118.18625,24.603306],[118.205806,24.613778],[118.215833,24.611222],[118.224139,24.602889],[118.227861,24.606639],[118.224583,24.61],[118.225806,24.625361],[118.220806,24.621222],[118.207056,24.621667],[118.21625,24.629972],[118.214139,24.632111],[118.203361,24.627889],[118.199167,24.632917],[118.198306,24.622889],[118.177056,24.625],[118.178306,24.632917],[118.184972,24.633722],[118.185861,24.637028],[118.189944,24.63625],[118.210417,24.655806],[118.209972,24.659556],[118.194194,24.655389],[118.182861,24.661667],[118.187889,24.669139],[118.189167,24.684611],[118.1825,24.682944],[118.170806,24.689556],[118.161222,24.683333],[118.161222,24.670833],[118.16625,24.663333],[118.164167,24.659556],[118.156667,24.657917],[118.152889,24.665],[118.148333,24.666222],[118.143278,24.656222],[118.132917,24.659111],[118.144139,24.653694],[118.14875,24.645806],[118.142,24.641667],[118.137083,24.624972],[118.130389,24.619167],[118.127889,24.606639],[118.120778,24.602889],[118.119528,24.597472],[118.109972,24.587028],[118.100417,24.582472],[118.101667,24.566222],[118.084139,24.56625],[118.086222,24.597472],[118.080806,24.594583],[118.078333,24.599583],[118.068722,24.603333],[118.066694,24.612056],[118.059972,24.607056],[118.046639,24.61875],[118.047861,24.615],[118.043722,24.614167],[118.057917,24.593306],[118.053306,24.591222],[118.049944,24.593722],[118.045389,24.589167],[118.057056,24.575833],[118.054583,24.563306],[118.047528,24.556222],[118.039194,24.556222],[118.033333,24.563722],[118.026639,24.56625],[118.027056,24.561639],[118.03125,24.560806],[118.031667,24.552111],[118.024972,24.551222],[118.021583,24.554583],[118.014139,24.554556],[118.007944,24.561667],[118.004972,24.575389],[117.998361,24.557889],[117.969583,24.555778],[117.9875,24.54375],[117.98825,24.5395],[118.017528,24.542917],[118.027861,24.539972],[118.016639,24.539528],[118.017528,24.537917],[118.029111,24.539556],[118.031667,24.534556],[118.044139,24.535389],[118.05625,24.523306],[118.054556,24.514944],[118.065417,24.509139],[118.057472,24.49625],[118.040778,24.494583],[118.03875,24.490806],[118.041222,24.487528],[118.035389,24.486639],[118.034139,24.477944],[118.029611,24.479167],[118.031194,24.487472],[118.028361,24.489556],[118.016667,24.477889],[118.010389,24.475806],[118.007083,24.465778],[118.012417,24.467083],[118.0175,24.462917],[118.025778,24.467028],[118.025389,24.458333],[118.030833,24.454556],[118.037944,24.455833],[118.035806,24.445417],[118.024139,24.443778],[118.016611,24.450417],[118.001639,24.450389],[117.988222,24.457889],[117.979167,24.456972],[117.943333,24.467056],[117.935861,24.472111],[117.926639,24.472167],[117.915028,24.477972],[117.888306,24.4845],[117.885833,24.487889],[117.879972,24.484528],[117.869972,24.488722],[117.864972,24.486278],[117.844167,24.487889],[117.820778,24.479639],[117.804167,24.477056]],[[117.800861,24.457972],[117.814167,24.452056],[117.830028,24.430333],[117.850806,24.425361],[117.870083,24.412056],[117.898806,24.400806],[117.896222,24.385806],[117.898861,24.3625],[117.892528,24.342944],[117.902056,24.364944],[117.899556,24.390778],[117.905833,24.395444],[117.934167,24.397056],[117.93825,24.393806],[117.944972,24.393778],[117.955833,24.39875],[117.976694,24.402056],[117.994972,24.398667],[118.016639,24.412917],[118.034111,24.40625],[118.044139,24.410417],[118.060833,24.407889],[118.06375,24.401694],[118.060444,24.394139],[118.048778,24.383333],[118.052056,24.364944],[118.048333,24.360389],[118.043333,24.361222],[118.037444,24.354556],[118.022472,24.352083],[118.022056,24.348306],[118.029139,24.347917],[118.029611,24.344972],[118.015361,24.339111],[118.014583,24.327472],[118.01125,24.324972],[118.019972,24.326222],[118.04825,24.344556],[118.050806,24.35625],[118.064139,24.358722],[118.065806,24.350417],[118.076639,24.348722],[118.083278,24.342083],[118.082056,24.350806],[118.086222,24.356639],[118.095806,24.357944],[118.101611,24.348722],[118.104556,24.349167],[118.102861,24.34],[118.111611,24.338722],[118.114583,24.334972],[118.110417,24.324167],[118.112833,24.3225],[118.111278,24.318306],[118.114167,24.314556],[118.121611,24.315417],[118.13125,24.308306],[118.126222,24.305806],[118.12875,24.301667],[118.124583,24.301639],[118.123722,24.291667],[118.129944,24.282056],[118.135417,24.281667],[118.133778,24.275833],[118.137917,24.269944],[118.134556,24.264972],[118.126611,24.265389],[118.119167,24.271222],[118.107472,24.265417],[118.098722,24.2575]],[[118.091667,24.252056],[118.080028,24.255389],[118.070778,24.25375]],[[118.275417,24.414167],[118.275361,24.415833],[118.292444,24.415389],[118.297056,24.419139],[118.29825,24.42625],[118.3075,24.427889],[118.310861,24.422861],[118.31375,24.427472],[118.307111,24.430806],[118.305417,24.445778],[118.299556,24.455806],[118.30125,24.465778],[118.297889,24.468333],[118.3075,24.465389],[118.312083,24.469111],[118.312083,24.474972],[118.306667,24.480417],[118.304111,24.47125],[118.295389,24.470806],[118.297083,24.464944],[118.295,24.463722],[118.28625,24.469972],[118.290806,24.479583],[118.311667,24.492056],[118.333278,24.474556],[118.349972,24.465417],[118.370806,24.462056],[118.37875,24.471639],[118.377056,24.484139],[118.384944,24.484583],[118.392056,24.491639],[118.389556,24.499167],[118.3925,24.500389],[118.40125,24.496639],[118.402917,24.499972],[118.397917,24.505],[118.404917,24.50625],[118.393278,24.507056],[118.391667,24.502083],[118.387917,24.504167],[118.390389,24.505],[118.390833,24.51125],[118.401639,24.513722],[118.408722,24.519167],[118.405,24.528722],[118.4125,24.52625],[118.421667,24.529556],[118.425,24.527056],[118.427917,24.515833],[118.433306,24.509583],[118.443333,24.509556],[118.447917,24.506639],[118.446222,24.500806],[118.452861,24.494944],[118.45625,24.482472],[118.465833,24.482111],[118.467917,24.479167],[118.462861,24.476639],[118.462083,24.462472],[118.464556,24.455806],[118.470417,24.452472],[118.470389,24.444972],[118.474583,24.44],[118.462472,24.440389],[118.461222,24.425778],[118.458306,24.42375],[118.455833,24.425444],[118.453306,24.417083],[118.434972,24.407917],[118.424111,24.407056],[118.429556,24.410778],[118.430361,24.416611],[118.420806,24.42375],[118.410806,24.42625],[118.404972,24.432056],[118.391667,24.433722],[118.373278,24.43125],[118.345833,24.417056],[118.335361,24.404194],[118.330389,24.39],[118.319944,24.385389],[118.304972,24.39125],[118.301639,24.396222],[118.294139,24.396222],[118.275417,24.414167]],[[118.062861,24.460806],[118.062889,24.461611],[118.066694,24.465389],[118.078333,24.466278],[118.078361,24.46875],[118.109556,24.481639],[118.110417,24.487472],[118.106639,24.494556],[118.101694,24.490417],[118.094139,24.489556],[118.078306,24.47625],[118.06875,24.480778],[118.067861,24.488306],[118.074944,24.501222],[118.086222,24.506639],[118.084583,24.514972],[118.092917,24.521611],[118.084556,24.533333],[118.094139,24.532917],[118.0975,24.536194],[118.107056,24.534194],[118.100361,24.549944],[118.101667,24.552861],[118.112528,24.548722],[118.117472,24.550389],[118.128306,24.547917],[118.135389,24.538333],[118.134944,24.534556],[118.140806,24.535361],[118.147472,24.54375],[118.159944,24.540389],[118.164972,24.518722],[118.174944,24.527889],[118.191194,24.528333],[118.195444,24.483333],[118.181667,24.481222],[118.175389,24.474139],[118.170389,24.454972],[118.13,24.422889],[118.116667,24.423722],[118.106639,24.428722],[118.097444,24.429556],[118.094167,24.433694],[118.081639,24.436194],[118.062861,24.460806]],[[117.802861,24.47],[117.802889,24.473333],[117.849139,24.485417],[117.875,24.48125],[117.887111,24.473306],[117.888306,24.466139],[117.892444,24.467833],[117.90875,24.451611],[117.905083,24.447917],[117.896639,24.448722],[117.890722,24.444556],[117.885028,24.444583],[117.870778,24.458722],[117.859139,24.452833],[117.846611,24.452028],[117.834167,24.466167],[117.824167,24.467889],[117.814111,24.463694],[117.802861,24.47]],[[118.207889,24.412472],[118.207889,24.413333],[118.21625,24.416667],[118.21375,24.428306],[118.22,24.427917],[118.224611,24.431667],[118.228361,24.449528],[118.247417,24.453722],[118.266278,24.444167],[118.261222,24.423278],[118.254194,24.425417],[118.249139,24.422861],[118.244611,24.418306],[118.24625,24.414972],[118.240806,24.411222],[118.238333,24.414528],[118.234139,24.414556],[118.221583,24.405361],[118.22,24.408778],[118.209972,24.409583],[118.207889,24.412472]],[[117.803306,24.46875],[117.814944,24.460472],[117.824167,24.465361],[117.830722,24.465444],[117.845889,24.448722],[117.872417,24.453722],[117.879639,24.434944],[117.875861,24.432889],[117.840861,24.432861],[117.829222,24.439528],[117.811694,24.458778]],[[118.29375,24.560806],[118.295389,24.5625],[118.309139,24.56875],[118.315833,24.567083],[118.323333,24.570417],[118.338278,24.567056],[118.34375,24.562472],[118.337056,24.559167],[118.3325,24.542917],[118.323278,24.542889],[118.3075,24.555417],[118.29375,24.560806]],[[117.936167,24.408333],[117.937444,24.409583],[117.944194,24.410417],[117.955028,24.418722],[117.977056,24.413361],[117.973361,24.407056],[117.967472,24.407111],[117.960806,24.402889],[117.953306,24.402889],[117.952444,24.407083],[117.941722,24.404583],[117.936167,24.408333]],[[117.852972,24.428333],[117.852972,24.429917],[117.874167,24.43125],[117.884972,24.427972],[117.889611,24.419111],[117.873333,24.417889],[117.852972,24.428333]],[[117.801278,24.477472],[117.800944,24.4695]],[[118.05125,24.444167],[118.05125,24.446667],[118.052861,24.454111],[118.059944,24.45625],[118.069583,24.445806],[118.069556,24.442472],[118.064139,24.438722],[118.05125,24.444167]],[[118.136222,24.340833],[118.13625,24.341639],[118.140806,24.342056],[118.147083,24.335833],[118.147861,24.333306],[118.144611,24.332444],[118.147917,24.325778],[118.145833,24.322056],[118.140389,24.3225],[118.136222,24.340833]],[[118.370417,24.554972],[118.370389,24.556611],[118.376611,24.562944],[118.392056,24.560778],[118.388306,24.556222],[118.379972,24.555389],[118.374972,24.557889],[118.373278,24.552861],[118.370417,24.554972]],[[118.166222,24.647444],[118.166222,24.648306],[118.171639,24.65625],[118.178722,24.655833],[118.178333,24.648722],[118.166222,24.647444]],[[118.155417,24.392472],[118.155361,24.395],[118.160833,24.396222],[118.161222,24.389972],[118.169583,24.386639],[118.163278,24.38375],[118.157861,24.386667],[118.155417,24.392472]],[[117.883722,24.440028],[117.884111,24.440361],[117.90125,24.43825],[117.889944,24.433722],[117.883722,24.440028]],[[117.999139,24.435333],[118,24.435389],[118.004111,24.437083],[118.010417,24.4325],[118.005,24.429556],[117.999111,24.430417],[117.999139,24.435333]],[[117.895417,24.470806],[117.895861,24.47125],[117.903361,24.4695],[117.912917,24.460833],[117.900861,24.465444],[117.895417,24.470806]],[[117.903722,24.476667],[117.903722,24.477472],[117.911611,24.476278],[117.922167,24.469083],[117.906583,24.472917],[117.903722,24.476667]],[[118.394583,24.549972],[118.403333,24.557917],[118.40875,24.554944],[118.398306,24.547944],[118.394583,24.549972]],[[118.072056,24.503306],[118.072083,24.504167],[118.079944,24.515417],[118.080361,24.506694],[118.072056,24.503306]],[[117.91125,24.469167],[117.911194,24.470833],[117.922472,24.467889],[117.925444,24.463333],[117.91125,24.469167]],[[117.889639,24.478417],[117.889528,24.479139],[117.90125,24.472472],[117.893361,24.472944],[117.889639,24.478417]],[[118.04125,24.457472],[118.041222,24.463333],[118.045833,24.467083],[118.046194,24.459972],[118.04125,24.457472]],[[118.447917,24.568333],[118.448694,24.569139],[118.454167,24.569611],[118.455361,24.565],[118.449972,24.563722],[118.447917,24.568333]],[[118.149528,24.379972],[118.149556,24.382472],[118.159556,24.38],[118.152444,24.377861],[118.149528,24.379972]],[[118.057139,24.489139],[118.057056,24.492444],[118.061694,24.497861],[118.062889,24.491667],[118.057139,24.489139]],[[118.161194,24.640833],[118.161222,24.643306],[118.164944,24.645389],[118.16875,24.6425],[118.164111,24.637889],[118.161194,24.640833]],[[118.497861,24.431611],[118.500833,24.434583],[118.503333,24.427889],[118.5,24.427056],[118.497861,24.431611]],[[118.122861,24.330778],[118.122889,24.333306],[118.126667,24.33375],[118.129528,24.327472],[118.122861,24.330778]],[[118.167083,24.584139],[118.167083,24.585],[118.172472,24.591222],[118.174583,24.59],[118.172472,24.585361],[118.167083,24.584139]],[[117.892917,24.443278],[117.892917,24.444139],[117.89575,24.447111],[117.900389,24.445833],[117.896639,24.442],[117.892917,24.443278]],[[117.902889,24.404972],[117.903278,24.405389],[117.910806,24.406194],[117.912028,24.403306],[117.902889,24.404972]],[[118.436194,24.708306],[118.436222,24.710833],[118.44,24.712056],[118.442028,24.7075],[118.436194,24.708306]],[[117.900389,24.463306],[117.900389,24.464167],[117.908694,24.46],[117.904222,24.459556],[117.900389,24.463306]],[[118.121222,24.364167],[118.12125,24.365833],[118.126639,24.367917],[118.127889,24.365833],[118.121222,24.364167]],[[118.432056,24.521639],[118.432111,24.523306],[118.437861,24.525778],[118.436639,24.522056],[118.432056,24.521639]],[[118.072917,24.363306],[118.072917,24.364972],[118.078778,24.366667],[118.072917,24.363306]],[[118.187083,24.396639],[118.187083,24.398306],[118.189972,24.399556],[118.192889,24.395806],[118.187083,24.396639]],[[117.865444,24.484167],[117.865444,24.484917],[117.872139,24.485833],[117.869167,24.482889],[117.865444,24.484167]],[[117.894556,24.480722],[117.894556,24.481583],[117.902056,24.478333],[117.894556,24.480722]],[[118.437083,24.574111],[118.439139,24.576222],[118.443694,24.574972],[118.439972,24.572028],[118.437083,24.574111]],[[118.224583,24.404139],[118.225806,24.405389],[118.230417,24.403361],[118.224583,24.404139]],[[117.899583,24.441639],[117.899472,24.443361],[117.9045,24.444194],[117.903222,24.441222],[117.899583,24.441639]],[[117.885306,24.478306],[117.885333,24.479056],[117.891278,24.474944],[117.885306,24.478306]],[[117.881222,24.414111],[117.8825,24.415417],[117.887056,24.412472],[117.881222,24.414111]],[[118.030389,24.4575],[118.030417,24.458361],[118.035,24.459583],[118.036222,24.4575],[118.030389,24.4575]],[[118.170389,24.664167],[118.170389,24.669944],[118.172917,24.665806],[118.170389,24.664167]],[[118.052056,24.485778],[118.052083,24.489167],[118.055389,24.487472],[118.052056,24.485778]],[[118.439556,24.614167],[118.439944,24.614583],[118.446194,24.6125],[118.439556,24.614167]],[[118.149528,24.558306],[118.149972,24.558694],[118.155361,24.558306],[118.152444,24.555417],[118.149528,24.558306]],[[118.008694,24.447472],[118.008722,24.448333],[118.013722,24.449167],[118.013333,24.447056],[118.008694,24.447472]],[[118.442083,24.571667],[118.442111,24.572472],[118.444111,24.573722],[118.445417,24.569972],[118.442083,24.571667]],[[118.507028,24.601639],[118.507056,24.604972],[118.509611,24.601611],[118.507028,24.601639]],[[118.453694,24.413306],[118.453694,24.414167],[118.455778,24.415389],[118.457944,24.4125],[118.453694,24.413306]],[[118.207889,24.551639],[118.207917,24.5525],[118.21375,24.552472],[118.207889,24.551639]],[[117.878722,24.440778],[117.878722,24.441639],[117.88125,24.441639],[117.880889,24.437056],[117.878722,24.440778]],[[118.568694,24.508306],[118.568722,24.509167],[118.572917,24.506667],[118.568694,24.508306]],[[118.408694,24.53],[118.408722,24.530806],[118.411611,24.53125],[118.412083,24.528306],[118.408694,24.53]],[[117.999139,24.410389],[118,24.409528],[117.998333,24.407083],[117.999139,24.410389]],[[118.392889,24.523333],[118.392917,24.524139],[118.39625,24.524972],[118.395,24.522056],[118.392889,24.523333]],[[118.491222,24.431639],[118.49125,24.433333],[118.494556,24.431639],[118.491222,24.431639]],[[118.437083,24.5775],[118.437917,24.578306],[118.439167,24.580417],[118.440417,24.578333],[118.437083,24.5775]],[[118.04375,24.48],[118.045,24.48125],[118.047861,24.479972],[118.04375,24.48]],[[118.194583,24.437472],[118.194611,24.438333],[118.197917,24.436639],[118.194583,24.437472]],[[118.188778,24.5775],[118.188722,24.579167],[118.191194,24.576611],[118.188778,24.5775]],[[117.876278,24.446667],[117.876278,24.449222],[117.87875,24.444972],[117.876278,24.446667]],[[118.470361,24.528333],[118.470389,24.53],[118.472889,24.530833],[118.470361,24.528333]],[[118.078722,24.364139],[118.079528,24.365],[118.082056,24.365833],[118.078722,24.364139]],[[118.052861,24.468333],[118.052861,24.469139],[118.054972,24.470389],[118.055417,24.467472],[118.052861,24.468333]],[[118.439556,24.537472],[118.439556,24.539111],[118.442944,24.539139],[118.439556,24.537472]],[[117.882833,24.482528],[117.883417,24.482917],[117.887889,24.481611],[117.882833,24.482528]],[[118.165361,24.677444],[118.165806,24.677917],[118.168722,24.674944],[118.165361,24.677444]],[[118.472861,24.447444],[118.472889,24.448306],[118.476194,24.449139],[118.472861,24.447444]],[[118.335417,24.390833],[118.335417,24.391611],[118.337917,24.39],[118.335417,24.390833]],[[118.474556,24.533333],[118.474556,24.534139],[118.476694,24.53625],[118.477917,24.534167],[118.474556,24.533333]],[[118.342028,24.408306],[118.342083,24.409167],[118.345361,24.409139],[118.342028,24.408306]],[[118.140361,24.377444],[118.140389,24.378306],[118.142889,24.376694],[118.140361,24.377444]],[[118.344583,24.574111],[118.344583,24.574972],[118.347861,24.573333],[118.344583,24.574111]],[[118.187917,24.432472],[118.187861,24.433333],[118.190417,24.434167],[118.187917,24.432472]],[[118.582083,24.520833],[118.583278,24.522083],[118.585389,24.52],[118.582083,24.520833]],[[118.474611,24.456611],[118.474972,24.457083],[118.477917,24.454972],[118.474611,24.456611]],[[118.428722,24.580861],[118.428722,24.582472],[118.432056,24.581694],[118.428722,24.580861]],[[118.247028,24.414111],[118.247083,24.414972],[118.250361,24.415],[118.247028,24.414111]],[[118.51875,24.510833],[118.518778,24.511694],[118.521222,24.512528],[118.51875,24.510833]],[[118.554583,24.5425],[118.554583,24.543306],[118.557111,24.541611],[118.554583,24.5425]],[[118.561222,24.5175],[118.56125,24.519167],[118.56375,24.517472],[118.561222,24.5175]],[[118.55125,24.558306],[118.55125,24.559972],[118.553722,24.56],[118.55125,24.558306]],[[118.548778,24.582472],[118.548694,24.584139],[118.551222,24.583306],[118.548778,24.582472]],[[117.910472,24.457417],[117.9105,24.459139],[117.912861,24.457389],[117.910472,24.457417]],[[118.624583,24.544972],[118.624944,24.545389],[118.62875,24.544139],[118.624583,24.544972]],[[118.127917,24.349167],[118.12875,24.35],[118.129944,24.352056],[118.130361,24.349139],[118.127917,24.349167]],[[118.419556,24.590806],[118.419556,24.591667],[118.422944,24.590833],[118.419556,24.590806]],[[118.631194,24.543306],[118.632472,24.544556],[118.63375,24.542472],[118.631194,24.543306]],[[118.462861,24.507472],[118.462861,24.509139],[118.465444,24.508306],[118.462861,24.507472]],[[118.477917,24.535833],[118.477861,24.536694],[118.480417,24.535],[118.477917,24.535833]],[[118.582917,24.526667],[118.582861,24.527472],[118.585417,24.525778],[118.582917,24.526667]],[[118.559611,24.546639],[118.559528,24.547444],[118.562056,24.545806],[118.559611,24.546639]],[[118.502889,24.438278],[118.504194,24.439583],[118.505,24.437056],[118.502889,24.438278]],[[118.223722,24.455806],[118.223722,24.456611],[118.226222,24.456667],[118.223722,24.455806]],[[118.482111,24.535833],[118.482056,24.536639],[118.484556,24.534944],[118.482111,24.535833]],[[118.133694,24.554167],[118.134167,24.554583],[118.137083,24.553278],[118.133694,24.554167]],[[118.473694,24.453306],[118.473694,24.454167],[118.47625,24.453333],[118.473694,24.453306]],[[118.457028,24.415778],[118.457028,24.416639],[118.459556,24.416611],[118.457028,24.415778]],[[118.209583,24.451639],[118.209583,24.4525],[118.212083,24.451667],[118.209583,24.451639]],[[118.463694,24.494972],[118.463722,24.495833],[118.466222,24.495],[118.463694,24.494972]],[[118.20625,24.454111],[118.206667,24.454583],[118.209583,24.454167],[118.20625,24.454111]],[[118.551222,24.5875],[118.551222,24.588306],[118.553722,24.586667],[118.551222,24.5875]],[[118.454556,24.489139],[118.455833,24.490389],[118.457056,24.488333],[118.454556,24.489139]],[[118.183722,24.400806],[118.18375,24.401667],[118.18625,24.401639],[118.183722,24.400806]],[[118.596222,24.524139],[118.59625,24.525],[118.59875,24.524972],[118.596222,24.524139]],[[118.184583,24.529139],[118.184583,24.53],[118.187083,24.529167],[118.184583,24.529139]],[[118.556222,24.560833],[118.556639,24.56125],[118.55875,24.559944],[118.556222,24.560833]],[[118.596278,24.522472],[118.596639,24.522917],[118.598694,24.521639],[118.596278,24.522472]],[[118.446278,24.575],[118.446667,24.575417],[118.448694,24.574139],[118.446278,24.575]],[[118.628722,24.545806],[118.629194,24.546194],[118.631222,24.544972],[118.628722,24.545806]],[[118.343694,24.564139],[118.344139,24.564611],[118.346194,24.564139],[118.343694,24.564139]],[[118.564556,24.5775],[118.565,24.577889],[118.566694,24.576222],[118.564556,24.5775]],[[118.129583,24.296667],[118.129972,24.297083],[118.132083,24.296667],[118.129583,24.296667]]]}}]}